SAR-LUPE 2              
1 31797U 07030A   26122.23479735  .00033427  00000+0  69686-3 0  9996
2 31797  98.1008 221.2080 0011739 262.2994  97.6920 15.45435208 49839
SAPPHIRE                
1 39088U 13009C   26122.14984594  .00000111  00000+0  53845-4 0  9999
2 39088  98.4250 302.7011 0011762  31.6682 328.5209 14.35227936689975
PRAETORIAN SDA_602      
1 65565U 25203A   26122.12878387  .00000261  00000+0  22302-3 0  9996
2 65565  81.3046  53.4289 0005525 329.1651  30.9180 13.84335800 32322
PRAETORIAN SDA_603      
1 65566U 25203B   26122.14093481  .00000238  00000+0  20413-3 0  9998
2 65566  81.3050  53.3011 0009090 324.7520  35.3035 13.83900846 32333
PRAETORIAN SDA_604      
1 65567U 25203C   26122.13206117  .00000040  00000+0  25633-4 0  9991
2 65567  81.3067  53.6510 0005300 338.0403  22.0525 13.83039203 32312
PRAETORIAN SDA_605      
1 65568U 25203D   26122.18261529  .00000070  00000+0  53008-4 0  9995
2 65568  81.3033  53.3125 0007708 321.8865  38.1746 13.83427410 32337
PRAETORIAN SDA_606      
1 65569U 25203E   26121.94897645  .00000088  00000+0  68989-4 0  9996
2 65569  81.3068  53.7340 0005443 327.4889  32.5932 13.83535236 32297
PRAETORIAN SDA_607      
1 65570U 25203F   26122.12917359  .00000190  00000+0  15991-3 0  9992
2 65570  81.3054  53.2978 0008370 325.9161  34.1457 13.84320606 32333
PRAETORIAN SDA_608      
1 65571U 25203G   26122.09100391  .00000067  00000+0  49373-4 0  9994
2 65571  81.3020  53.4767 0005763 335.7565  24.3319 13.83809111 32313
PRAETORIAN SDA_609      
1 65572U 25203H   26122.03931735  .00000202  00000+0  17055-3 0  9995
2 65572  81.3065  53.5205 0006480 326.3926  33.6819 13.84303697 32312
PRAETORIAN SDA_610      
1 65573U 25203J   26122.14526304  .00000039  00000+0  24101-4 0  9999
2 65573  81.3022  53.3887 0006157 330.7703  29.3108 13.83914977 32325
PRAETORIAN SDA_611      
1 65574U 25203K   26121.90998422  .00000410  00000+0  36250-3 0  9997
2 65574  81.3027  53.7318 0005499 341.5384  18.5572 13.83303257 32280
PRAETORIAN SDA_612      
1 65575U 25203L   26122.17403360  .00000213  00000+0  17790-3 0  9999
2 65575  81.3043  53.1868 0008851 324.6573  35.3997 13.85031448 32347
PRAETORIAN SDA_613      
1 65576U 25203M   26122.19041727  .00000056  00000+0  40495-4 0  9991
2 65576  81.3014  53.4387 0005396 333.0591  27.0284 13.82946932 32325
PRAETORIAN SDA_614      
1 65577U 25203N   26122.15458424  .00000086  00000+0  66020-4 0  9999
2 65577  81.3029  53.2712 0006714 325.0146  35.0569 13.84771610 32342
PRAETORIAN SDA_615      
1 65578U 25203P   26122.04781863  .00000243  00000+0  20691-3 0  9992
2 65578  81.3038  53.3048 0008594 323.3143  36.7424 13.84428925 32326
PRAETORIAN SDA_616      
1 65579U 25203Q   26122.05330878  .00000237  00000+0  20543-3 0  9999
2 65579  81.3074  53.7146 0005193 340.0399  20.0554 13.83318101 32302
PRAETORIAN SDA_617      
1 65580U 25203R   26122.14309285  .00000073  00000+0  55504-4 0  9993
2 65580  81.3050  53.4673 0007043 325.5785  34.4914 13.83197768 32328
PRAETORIAN SDA_618      
1 65581U 25203S   26122.09608506  .00000156  00000+0  12823-3 0  9994
2 65581  81.3038  53.2122 0009343 324.4526  35.6007 13.84767847 32337
PRAETORIAN SDA_619      
1 65582U 25203T   26122.17628598  .00000177  00000+0  14860-3 0  9993
2 65582  81.3059  53.3634 0007561 323.5085  36.5556 13.83937819 32965
PRAETORIAN SDA_620      
1 65583U 25203U   26122.05055227  .00000245  00000+0  21097-3 0  9990
2 65583  81.3043  53.4879 0007153 320.9994  39.0646 13.83612262 32317
PRAETORIAN SDA_621      
1 65584U 25203V   26122.17501169  .00000035  00000+0  21278-4 0  9994
2 65584  81.3035  53.3082 0006838 319.1085  40.9558 13.83793130 32333
PRAETORIAN SDA_601      
1 65585U 25203W   26122.12748300  .00000363  00000+0  31925-3 0  9993
2 65585  81.3056  53.6018 0005272 339.4790  20.6153 13.83423210 32311
